NORAD_CAT_ID,OBJECT_NAME,OBJECT_TYPE,EPOCH,MEAN_MOTION,ECCENTRICITY,INCLINATION,RA_OF_ASC_NODE,ARG_OF_PERICENTER,MEAN_ANOMALY,BSTAR,MEAN_MOTION_DOT,MEAN_MOTION_DDOT,TLE_LINE0,TLE_LINE1,TLE_LINE2,SEMIMAJOR_AXIS,PERIOD,APOGEE,PERIGEE,DECAYED
55311.0,STARLINK-5312,PAYLOAD,2023-06-16 01:31:06,15.69927881,0.0003993,69.997,14.116,270.4886,89.5852,5.2084e-07,-1.51e-06,0.0,0 STARLINK-5312,1 55311U 23010AU  23167.06327520 -.00000151  00000-0  52084-6 0  9998,2 55311  69.9970  14.1160 0003993 270.4886  89.5852 15.69927881 24851,6737.24,91.724,361.796,356.415,0.0
55311.0,STARLINK-5312,PAYLOAD,2023-06-16 16:48:33,15.69990931,0.0003529,69.9974,12.3257,270.5868,89.4923,7.7391e-05,9.129e-05,0.0,0 STARLINK-5312,1 55311U 23010AU  23167.70039329  .00009129  00000-0  77391-4 0  9995,2 55311  69.9974  12.3257 0003529 270.5868  89.4923 15.69990931 24953,6737.06,91.72,361.302,356.547,0.0
55311.0,STARLINK-5312,PAYLOAD,2023-06-16 22:55:40,15.69906625,0.0003507,69.997,11.6088,299.0945,60.9899,-1.5848e-05,-2.117e-05,0.0,0 STARLINK-5312,1 55311U 23010AU  23167.95533088 -.00002117  00000-0 -15848-4 0  9994,2 55311  69.9970  11.6088 0003507 299.0945  60.9899 15.69906625 23807,6737.301,91.725,361.529,356.803,0.0
55311.0,STARLINK-5312,PAYLOAD,2023-06-17 06:34:25,15.69907557,0.0004537,69.9978,10.7139,268.1794,91.8882,-1.0039e-05,-1.42e-05,0.0,0 STARLINK-5312,1 55311U 23010AU  23168.27390896 -.00001420  00000-0 -10039-4 0  9991,2 55311  69.9978  10.7139 0004537 268.1794  91.8882 15.69907557 25043,6737.298,91.725,362.22,356.107,0.0
55311.0,STARLINK-5312,PAYLOAD,2023-06-17 15:44:55,15.69927844,0.00031,69.9992,9.64,260.3837,99.7009,1.5459e-05,1.647e-05,0.0,0 STARLINK-5312,1 55311U 23010AU  23168.65619594  .00001647  00000-0  15459-4 0  9992,2 55311  69.9992   9.6400 0003100 260.3837  99.7009 15.69927844 23917,6737.24,91.724,361.194,357.017,0.0
55311.0,STARLINK-5312,PAYLOAD,2023-06-17 20:20:09,15.69937948,0.0003709,69.9986,9.1038,269.9315,90.1456,2.6476e-05,2.974e-05,0.0,0 STARLINK-5312,1 55311U 23010AU  23168.84733775  .00002974  00000-0  26476-4 0  9996,2 55311  69.9986   9.1038 0003709 269.9315  90.1456 15.69937948 25136,6737.212,91.723,361.575,356.578,0.0
55311.0,STARLINK-5312,PAYLOAD,2023-06-18 07:02:26,15.69929095,0.0003609,69.9969,7.8462,267.7449,92.3334,-9.881e-06,-1.401e-05,0.0,0 STARLINK-5312,1 55311U 23010AU  23169.29336352 -.00001401  00000-0 -98810-5 0  9994,2 55311  69.9969   7.8462 0003609 267.7449  92.3334 15.69929095 24015,6737.237,91.724,361.533,356.67,0.0
55311.0,STARLINK-5312,PAYLOAD,2023-06-18 19:16:27,15.69911367,0.00035,69.9976,6.4131,272.0666,88.0129,4.8465e-05,5.616e-05,0.0,0 STARLINK-5312,1 55311U 23010AU  23169.80309844  .00005616  00000-0  48465-4 0  9997,2 55311  69.9976   6.4131 0003500 272.0666  88.0129 15.69911367 25288,6737.288,91.725,361.511,356.795,0.0
55311.0,STARLINK-5312,PAYLOAD,2023-06-19 05:58:43,15.69910956,0.0003474,69.9972,5.1594,278.4053,81.6748,3.478e-05,3.969e-05,0.0,0 STARLINK-5312,1 55311U 23010AU  23170.24912027  .00003969  00000-0  34780-4 0  9994,2 55311  69.9972   5.1594 0003474 278.4053  81.6748 15.69910956 25350,6737.289,91.725,361.494,356.813,0.0
55311.0,STARLINK-5312,PAYLOAD,2023-06-19 19:44:29,15.69929053,0.0003152,69.998,3.547,268.8101,91.2733,-1.1795e-06,-3.55e-06,0.0,0 STARLINK-5312,1 55311U 23010AU  23170.82256688 -.00000355  00000-0 -11795-5 0  9992,2 55311  69.9980   3.5470 0003152 268.8101  91.2733 15.69929053 25443,6737.237,91.724,361.226,356.978,0.0
55311.0,STARLINK-5312,PAYLOAD,2023-06-20 00:19:45,15.69925814,0.0003252,69.9978,3.0094,270.2927,89.7896,-4.9253e-06,-8.05e-06,0.0,0 STARLINK-5312,1 55311U 23010AU  23171.01371953 -.00000805  00000-0 -49253-5 0  9997,2 55311  69.9978   3.0094 0003252 270.2927  89.7896 15.69925814 24285,6737.246,91.724,361.302,356.92,0.0
55311.0,STARLINK-5312,PAYLOAD,2023-06-20 06:26:45,15.69923164,0.0003029,69.9976,2.2937,269.7873,90.2975,1.874e-05,2.041e-05,0.0,0 STARLINK-5312,1 55311U 23010AU  23171.26858350  .00002041  00000-0  18740-4 0  9993,2 55311  69.9976   2.2937 0003029 269.7873  90.2975 15.69923164 25513,6737.254,91.724,361.16,357.078,0.0
55311.0,STARLINK-5312,PAYLOAD,2023-06-20 20:12:31,15.69927327,0.0003732,69.9973,0.6797,266.058,94.0189,1.6552e-05,1.778e-05,0.0,0 STARLINK-5312,1 55311U 23010AU  23171.84202735  .00001778  00000-0  16552-4 0  9992,2 55311  69.9973   0.6797 0003732 266.0580  94.0189 15.69927327 25606,6737.242,91.724,361.621,356.593,0.0
55311.0,STARLINK-5312,PAYLOAD,2023-06-21 13:01:48,15.69920358,0.0003242,69.9972,358.7137,272.409,87.6735,3.8321e-06,2.48e-06,0.0,0 STARLINK-5312,1 55311U 23010AU  23172.54292222  .00000248  00000-0  38321-5 0  9990,2 55311  69.9972 358.7137 0003242 272.4090  87.6735 15.69920358 24525,6737.262,91.724,361.311,356.943,0.0
55311.0,STARLINK-5312,PAYLOAD,2023-06-21 19:08:48,15.69928687,0.0003569,69.9978,357.9951,263.0352,97.0438,1.9709e-05,2.158e-05,0.0,0 STARLINK-5312,1 55311U 23010AU  23172.79777941  .00002158  00000-0  19709-4 0  9993,2 55311  69.9978 357.9951 0003569 263.0352  97.0438 15.69928687 24567,6737.238,91.724,361.508,356.699,0.0
55311.0,STARLINK-5312,PAYLOAD,2023-06-21 23:44:05,15.69905247,0.0003499,69.9972,357.4538,276.6891,83.3907,-3.3518e-06,-6.16e-06,0.0,0 STARLINK-5312,1 55311U 23010AU  23172.98894951 -.00000616  00000-0 -33518-5 0  9999,2 55311  69.9972 357.4538 0003499 276.6891  83.3907 15.69905247 24596,6737.305,91.725,361.527,356.813,0.0
55311.0,STARLINK-5312,PAYLOAD,2023-06-22 05:51:05,15.69918135,0.00038,69.9961,356.7395,271.877,88.199,-5.5249e-07,-2.8e-06,0.0,0 STARLINK-5312,1 55311U 23010AU  23173.24380817 -.00000280  00000-0 -55249-6 0  9993,2 55311  69.9961 356.7395 0003800 271.8770  88.1990 15.69918135 24636,6737.268,91.725,361.693,356.573,0.0
55311.0,STARLINK-5312,PAYLOAD,2023-06-22 15:01:33,15.6994234,0.0003741,69.9976,355.6651,268.6293,91.4474,2.3932e-05,2.668e-05,0.0,0 STARLINK-5312,1 55311U 23010AU  23173.62608796  .00002668  00000-0  23932-4 0  9996,2 55311  69.9976 355.6651 0003741 268.6293  91.4474 15.69942340 24698,6737.199,91.723,361.584,356.544,0.0
55311.0,STARLINK-5312,PAYLOAD,2023-06-22 21:08:36,15.69910032,0.000375,69.9978,354.9483,271.5507,88.5259,1.727e-05,1.863e-05,0.0,0 STARLINK-5312,1 55311U 23010AU  23173.88097575  .00001863  00000-0  17270-4 0  9995,2 55311  69.9978 354.9483 0003750 271.5507  88.5259 15.69910032 24732,6737.291,91.725,361.683,356.63,0.0
55311.0,STARLINK-5312,PAYLOAD,2023-06-23 10:54:21,15.6992776,0.0004362,69.9977,353.3358,267.1906,92.879,2.0573e-05,2.262e-05,0.0,0 STARLINK-5312,1 55311U 23010AU  23174.45441344  .00002262  00000-0  20573-4 0  9990,2 55311  69.9977 353.3358 0004362 267.1906  92.8790 15.69927760 24823,6737.241,91.724,362.044,356.167,0.0
55311.0,STARLINK-5312,PAYLOAD,2023-06-23 18:33:05,15.69948153,0.0003918,69.9981,352.442,265.4861,94.5887,2.5806e-05,2.894e-05,0.0,0 STARLINK-5312,1 55311U 23010AU  23174.77298263  .00002894  00000-0  25806-4 0  9990,2 55311  69.9981 352.4420 0003918 265.4861  94.5887 15.69948153 24875,6737.182,91.723,361.687,356.408,0.0
55311.0,STARLINK-5312,PAYLOAD,2023-06-23 21:36:38,15.69910395,0.0003534,69.9977,352.0821,273.1303,86.9488,-1.9006e-05,-2.496e-05,0.0,0 STARLINK-5312,1 55311U 23010AU  23174.90044607 -.00002496  00000-0 -19006-4 0  9991,2 55311  69.9977 352.0821 0003534 273.1303  86.9488 15.69910395 24893,6737.29,91.725,361.536,356.774,0.0
55311.0,STARLINK-5312,PAYLOAD,2023-06-24 14:25:54,15.69914559,0.0003753,69.9984,350.1095,270.2573,89.8192,-1.1832e-05,-1.635e-05,0.0,0 STARLINK-5312,1 55311U 23010AU  23175.60133046 -.00001635  00000-0 -11832-4 0  9998,2 55311  69.9984 350.1095 0003753 270.2573  89.8192 15.69914559 25007,6737.278,91.725,361.672,356.615,0.0
55311.0,STARLINK-5312,PAYLOAD,2023-06-24 20:32:54,15.69929418,0.0003416,70.0,349.3953,262.7066,97.3742,-4.1172e-06,-7.08e-06,0.0,0 STARLINK-5312,1 55311U 23010AU  23175.85618269 -.00000708  00000-0 -41172-5 0  9991,2 55311  70.0000 349.3953 0003416 262.7066  97.3742 15.69929418 25040,6737.236,91.724,361.402,356.799,0.0
55311.0,STARLINK-5312,PAYLOAD,2023-06-25 21:00:56,15.69910067,0.0004155,69.9981,346.526,272.3662,87.7058,-3.3795e-05,-4.273e-05,0.0,0 STARLINK-5312,1 55311U 23010AU  23176.87565929 -.00004273  00000-0 -33795-4 0  9990,2 55311  69.9981 346.5260 0004155 272.3662  87.7058 15.69910067 25206,6737.291,91.725,361.956,356.357,0.0
55311.0,STARLINK-5312,PAYLOAD,2023-06-26 04:39:42,15.69918286,0.0003508,69.9983,345.6303,270.9069,89.1724,-2.1539e-05,-2.801e-05,0.0,0 STARLINK-5312,1 55311U 23010AU  23177.19424198 -.00002801  00000-0 -21539-4 0  9996,2 55311  69.9983 345.6303 0003508 270.9069  89.1724 15.69918286 25254,6737.268,91.725,361.496,356.769,0.0
55311.0,STARLINK-5312,PAYLOAD,2023-06-26 19:57:13,15.69931337,0.0003814,69.9982,343.8372,270.8571,89.2188,2.7839e-05,3.137e-05,0.0,0 STARLINK-5312,1 55311U 23010AU  23177.83140472  .00003137  00000-0  27839-4 0  9997,2 55311  69.9982 343.8372 0003814 270.8571  89.2188 15.69931337 25354,6737.23,91.724,361.665,356.526,0.0
55311.0,STARLINK-5312,PAYLOAD,2023-06-27 20:25:16,15.69916371,0.000351,69.9995,340.9738,276.9375,83.1421,-8.1905e-06,-1.197e-05,0.0,0 STARLINK-5312,1 55311U 23010AU  23178.85088038 -.00001197  00000-0 -81905-5 0  9990,2 55311  69.9995 340.9738 0003510 276.9375  83.1421 15.69916371 25516,6737.273,91.725,361.503,356.773,0.0
55311.0,STARLINK-5312,PAYLOAD,2023-06-28 10:11:01,15.69923263,0.0003657,69.9998,339.3611,272.6632,87.4145,7.6788e-06,7.1e-06,0.0,0 STARLINK-5312,1 55311U 23010AU  23179.42432823  .00000710  00000-0  76788-5 0  9990,2 55311  69.9998 339.3611 0003657 272.6632  87.4145 15.69923263 25600,6737.254,91.724,361.582,356.655,0.0
55311.0,STARLINK-5312,PAYLOAD,2023-06-29 18:17:49,15.6993382,0.0003575,69.9984,335.5974,274.115,85.9637,1.4466e-05,1.528e-05,0.0,0 STARLINK-5312,1 55311U 23010AU  23180.76237271  .00001528  00000-0  14466-4 0  9991,2 55311  69.9984 335.5974 0003575 274.1150  85.9637 15.69933820 25818,6737.223,91.724,361.497,356.68,0.0
